0 CANX-1
1 27847U 03031H   13282.01029042  .00000193  00000-0  10839-3 0  6645
2 27847 098.6915 289.4227 0008288 253.2798 160.9523 14.21458761532964
0 CANX-1
1 27847U 03031H   13283.50758787  .00000183  00000-0  10345-3 0  6657
2 27847 098.6913 290.8970 0008352 248.3921 263.5612 14.21459596533189
0 CANX-1
1 27847U 03031H   13285.74107910  .00000175  00000-0  10005-3 0  6677
2 27847 098.6910 293.0964 0008444 241.2336 173.6128 14.21460465533492
0 CANX-1
1 27847U 03031H   13287.00790958  .00000203  00000-0  11267-3 0  6682
2 27847 098.6908 294.3438 0008500 237.2263 176.6588 14.21460976533676
0 CANX-1
1 27847U 03031H   13288.50739997  .00000254  00000-0  13618-3 0  6693
2 27847 098.6907 295.8200 0008581 232.5745 290.2601 14.21462382533896
0 CANX-1
1 27847U 03031H   13289.55508803  .00000199  00000-0  11077-3 0  6706
2 27847 098.6907 296.8514 0008621 229.2712 251.8327 14.21463178534047
0 CANX-1
1 27847U 03031H   13290.73874823  .00000209  00000-0  11552-3 0  6717
2 27847 098.6908 298.0166 0008670 225.5918 189.1998 14.21463682534212
0 CANX-1
1 27847U 03031H   13291.93781825  .00000230  00000-0  12499-3 0  6725
2 27847 098.6909 299.1969 0008734 221.9178 205.3748 14.21464103534386
0 CANX-1
1 27847U 03031H   13292.99078497  .00000245  00000-0  13178-3 0  6738
2 27847 098.6910 300.2335 0008788 218.7464 193.8197 14.21464627534537
0 CANX-1
1 27847U 03031H   13294.49021296  .00000217  00000-0  11925-3 0  6748
2 27847 098.6911 301.7095 0008869 214.2444 306.9717 14.21465744534745
0 CANX-1
1 27847U 03031H   13295.66787801  .00000262  00000-0  13979-3 0  6751
2 27847 098.6911 302.8689 0008926 210.7375 213.5160 14.21466120534906
